{"type": "FeatureCollection", "features": [{"type": "Feature", "properties": {"norad_id": 25730, "name": "FENGYUN 1C", "group": "fengyun-1c-debris", "lat": 78.83617045430003, "lon": -70.5829530142926, "alt_km": 791.6872737528756, "timestamp": "2025-12-16T21:38:57.445289+00:00", "meta": {"OBJECT_NAME": "FENGYUN 1C", "OBJECT_ID": "1999-025A", "EPOCH": "2025-12-16T04:21:32.808672", "MEAN_MOTION": 14.2606991, "ECCENTRICITY": 0.00105583, "INCLINATION": 98.8841, "RA_OF_ASC_NODE": 56.2612, "ARG_OF_PERICENTER": 59.0615, "MEAN_ANOMALY": 301.1601, "EPHEMERIS_TYPE": 0, "CLASSIFICATION_TYPE": "U", "NORAD_CAT_ID": 25730, "ELEMENT_SET_NO": 999, "REV_AT_EPOCH": 37186, "BSTAR": 0.00085902863, "MEAN_MOTION_DOT": 2.008e-05, "MEAN_MOTION_DDOT": 0}, "tle": {"line1": "1 25730U 99025A   25350.18162973  .00002008  00000+0  85903-3 0  9991", "line2": "2 25730  98.8841  56.2612 0010558  59.0615 301.1601 14.26069910371869"}}, "geometry": {"type": "Point", "coordinates": [-70.5829530142926, 78.83617045430003]}}, {"type": "Feature", "properties": {"norad_id": 29733, "name": "FENGYUN 1C DEB", "group": "fengyun-1c-debris", "lat": -76.94425665627855, "lon": 90.8201026297694, "alt_km": 1234.705132094553, "timestamp": "2025-12-16T21:38:57.445309+00:00", "meta": {"OBJECT_NAME": "FENGYUN 1C DEB", "OBJECT_ID": "1999-025X", "EPOCH": "2025-12-16T01:52:49.046880", "MEAN_MOTION": 12.9647488, "ECCENTRICITY": 0.05697888, "INCLINATION": 99.2246, "RA_OF_ASC_NODE": 45.6349, "ARG_OF_PERICENTER": 194.3234, "MEAN_ANOMALY": 195.8655, "EPHEMERIS_TYPE": 0, "CLASSIFICATION_TYPE": "U", "NORAD_CAT_ID": 29733, "ELEMENT_SET_NO": 999, "REV_AT_EPOCH": 89163, "BSTAR": 0.0020726411, "MEAN_MOTION_DOT": 1.218e-05, "MEAN_MOTION_DDOT": 0}, "tle": {"line1": "1 29733U 99025X   25350.07834545  .00001218  00000+0  20726-2 0  9990", "line2": "2 29733  99.2246  45.6349 0569788 194.3234 195.8655 12.96474880891633"}}, "geometry": {"type": "Point", "coordinates": [90.8201026297694, -76.94425665627855]}}, {"type": "Feature", "properties": {"norad_id": 29734, "name": "FENGYUN 1C DEB", "group": "fengyun-1c-debris", "lat": 17.155970871852734, "lon": -82.73296148096598, "alt_km": 838.7320062181998, "timestamp": "2025-12-16T21:38:57.445323+00:00", "meta": {"OBJECT_NAME": "FENGYUN 1C DEB", "OBJECT_ID": "1999-025Y", "EPOCH": "2025-12-16T07:19:30.870624", "MEAN_MOTION": 12.91329691, "ECCENTRICITY": 0.06154257, "INCLINATION": 99.1683, "RA_OF_ASC_NODE": 279.6256, "ARG_OF_PERICENTER": 3.6832, "MEAN_ANOMALY": 118.8462, "EPHEMERIS_TYPE": 0, "CLASSIFICATION_TYPE": "U", "NORAD_CAT_ID": 29734, "ELEMENT_SET_NO": 999, "REV_AT_EPOCH": 88594, "BSTAR": 0.0046218418, "MEAN_MOTION_DOT": 2.846e-05, "MEAN_MOTION_DDOT": 0}, "tle": {"line1": "1 29734U 99025Y   25350.30521841  .00002846  00000+0  46218-2 0  9991", "line2": "2 29734  99.1683 279.6256 0615425   3.6832 118.8462 12.91329691885942"}}, "geometry": {"type": "Point", "coordinates": [-82.73296148096598, 17.155970871852734]}}, {"type": "Feature", "properties": {"norad_id": 29735, "name": "FENGYUN 1C DEB", "group": "fengyun-1c-debris", "lat": 42.174976845432205, "lon": -103.45764272499719, "alt_km": 1624.9406710759622, "timestamp": "2025-12-16T21:38:57.445335+00:00", "meta": {"OBJECT_NAME": "FENGYUN 1C DEB", "OBJECT_ID": "1999-025Z", "EPOCH": "2025-12-16T06:19:59.779776", "MEAN_MOTION": 12.75052592, "ECCENTRICITY": 0.0697478, "INCLINATION": 99.3911, "RA_OF_ASC_NODE": 264.6329, "ARG_OF_PERICENTER": 167.4417, "MEAN_ANOMALY": 194.5096, "EPHEMERIS_TYPE": 0, "CLASSIFICATION_TYPE": "U", "NORAD_CAT_ID": 29735, "ELEMENT_SET_NO": 999, "REV_AT_EPOCH": 87460, "BSTAR": 0.0013921398, "MEAN_MOTION_DOT": 7.8e-06, "MEAN_MOTION_DDOT": 0}, "tle": {"line1": "1 29735U 99025Z   25350.26388634  .00000780  00000+0  13921-2 0  9998", "line2": "2 29735  99.3911 264.6329 0697478 167.4417 194.5096 12.75052592874600"}}, "geometry": {"type": "Point", "coordinates": [-103.45764272499719, 42.174976845432205]}}, {"type": "Feature", "properties": {"norad_id": 29736, "name": "FENGYUN 1C DEB", "group": "fengyun-1c-debris", "lat": -74.04520861539496, "lon": -155.07562101885267, "alt_km": 1431.089057145352, "timestamp": "2025-12-16T21:38:57.445346+00:00", "meta": {"OBJECT_NAME": "FENGYUN 1C DEB", "OBJECT_ID": "1999-025AA", "EPOCH": "2025-12-15T23:54:17.347104", "MEAN_MOTION": 12.57497633, "ECCENTRICITY": 0.07250434, "INCLINATION": 99.4035, "RA_OF_ASC_NODE": 168.7698, "ARG_OF_PERICENTER": 191.7108, "MEAN_ANOMALY": 303.3439, "EPHEMERIS_TYPE": 0, "CLASSIFICATION_TYPE": "U", "NORAD_CAT_ID": 29736, "ELEMENT_SET_NO": 999, "REV_AT_EPOCH": 86585, "BSTAR": 0.0020695003, "MEAN_MOTION_DOT": 9.11e-06, "MEAN_MOTION_DDOT": 0}, "tle": {"line1": "1 29736U 99025AA  25349.99603411  .00000911  00000+0  20695-2 0  9992", "line2": "2 29736  99.4035 168.7698 0725043 191.7108 303.3439 12.57497633865856"}}, "geometry": {"type": "Point", "coordinates": [-155.07562101885267, -74.04520861539496]}}, {"type": "Feature", "properties": {"norad_id": 29737, "name": "FENGYUN 1C DEB", "group": "fengyun-1c-debris", "lat": 48.17431930131636, "lon": 136.15844649765964, "alt_km": 854.7148057890008, "timestamp": "2025-12-16T21:38:57.445357+00:00", "meta": {"OBJECT_NAME": "FENGYUN 1C DEB", "OBJECT_ID": "1999-025AB", "EPOCH": "2025-12-15T18:48:22.633920", "MEAN_MOTION": 12.65658975, "ECCENTRICITY": 0.06949378, "INCLINATION": 99.5804, "RA_OF_ASC_NODE": 304.3469, "ARG_OF_PERICENTER": 131.8918, "MEAN_ANOMALY": 305.0707, "EPHEMERIS_TYPE": 0, "CLASSIFICATION_TYPE": "U", "NORAD_CAT_ID": 29737, "ELEMENT_SET_NO": 999, "REV_AT_EPOCH": 86907, "BSTAR": 0.0024316881, "MEAN_MOTION_DOT": 1.152e-05, "MEAN_MOTION_DDOT": 0}, "tle": {"line1": "1 29737U 99025AB  25349.78359530  .00001152  00000+0  24317-2 0  9993", "line2": "2 29737  99.5804 304.3469 0694937 131.8918 305.0707 12.65658975869079"}}, "geometry": {"type": "Point", "coordinates": [136.15844649765964, 48.17431930131636]}}, {"type": "Feature", "properties": {"norad_id": 29738, "name": "FENGYUN 1C DEB", "group": "fengyun-1c-debris", "lat": 80.4732196650027, "lon": 58.170878645899556, "alt_km": 2061.662544027219, "timestamp": "2025-12-16T21:38:57.445368+00:00", "meta": {"OBJECT_NAME": "FENGYUN 1C DEB", "OBJECT_ID": "1999-025AC", "EPOCH": "2025-12-16T07:48:06.491232", "MEAN_MOTION": 12.61051011, "ECCENTRICITY": 0.08647361, "INCLINATION": 99.409, "RA_OF_ASC_NODE": 156.6008, "ARG_OF_PERICENTER": 286.7179, "MEAN_ANOMALY": 64.0817, "EPHEMERIS_TYPE": 0, "CLASSIFICATION_TYPE": "U", "NORAD_CAT_ID": 29738, "ELEMENT_SET_NO": 999, "REV_AT_EPOCH": 86262, "BSTAR": 0.0023123956, "MEAN_MOTION_DOT": 1.726e-05, "MEAN_MOTION_DDOT": 0}, "tle": {"line1": "1 29738U 99025AC  25350.32507513  .00001726  00000+0  23124-2 0  9994", "line2": "2 29738  99.4090 156.6008 0864736 286.7179  64.0817 12.61051011862620"}}, "geometry": {"type": "Point", "coordinates": [58.170878645899556, 80.4732196650027]}}, {"type": "Feature", "properties": {"norad_id": 29740, "name": "FENGYUN 1C DEB", "group": "fengyun-1c-debris", "lat": 22.329356564162456, "lon": -162.47633762764687, "alt_km": 2403.384629416775, "timestamp": "2025-12-16T21:38:57.445380+00:00", "meta": {"OBJECT_NAME": "FENGYUN 1C DEB", "OBJECT_ID": "1999-025AE", "EPOCH": "2025-12-16T03:36:45.569088", "MEAN_MOTION": 12.08332087, "ECCENTRICITY": 0.09747478, "INCLINATION": 99.0439, "RA_OF_ASC_NODE": 200.737, "ARG_OF_PERICENTER": 191.8992, "MEAN_ANOMALY": 165.743, "EPHEMERIS_TYPE": 0, "CLASSIFICATION_TYPE": "U", "NORAD_CAT_ID": 29740, "ELEMENT_SET_NO": 999, "REV_AT_EPOCH": 82976, "BSTAR": 4.320795e-05, "MEAN_MOTION_DOT": -1e-07, "MEAN_MOTION_DDOT": 0}, "tle": {"line1": "1 29740U 99025AE  25350.15052742 -.00000010  00000+0  43208-4 0  9990", "line2": "2 29740  99.0439 200.7370 0974747 191.8992 165.7430 12.08332087829766"}}, "geometry": {"type": "Point", "coordinates": [-162.47633762764687, 22.329356564162456]}}, {"type": "Feature", "properties": {"norad_id": 29741, "name": "FENGYUN 1C DEB", "group": "fengyun-1c-debris", "lat": 21.674022973620765, "lon": 47.73583372709482, "alt_km": 1767.8797053924636, "timestamp": "2025-12-16T21:38:57.445390+00:00", "meta": {"OBJECT_NAME": "FENGYUN 1C DEB", "OBJECT_ID": "1999-025AF", "EPOCH": "2025-12-15T15:01:59.604384", "MEAN_MOTION": 12.0094567, "ECCENTRICITY": 0.1024982, "INCLINATION": 99.1746, "RA_OF_ASC_NODE": 223.1403, "ARG_OF_PERICENTER": 58.2426, "MEAN_ANOMALY": 335.2992, "EPHEMERIS_TYPE": 0, "CLASSIFICATION_TYPE": "U", "NORAD_CAT_ID": 29741, "ELEMENT_SET_NO": 999, "REV_AT_EPOCH": 52218, "BSTAR": 0.0054633998, "MEAN_MOTION_DOT": 2.124e-05, "MEAN_MOTION_DDOT": 0}, "tle": {"line1": "1 29741U 99025AF  25349.62638431  .00002124  00000+0  54634-2 0  9996", "line2": "2 29741  99.1746 223.1403 1024982  58.2426 335.2992 12.00945670522184"}}, "geometry": {"type": "Point", "coordinates": [47.73583372709482, 21.674022973620765]}}, {"type": "Feature", "properties": {"norad_id": 29748, "name": "FENGYUN 1C DEB", "group": "fengyun-1c-debris", "lat": -75.34383388057972, "lon": 59.41682247123132, "alt_km": 1841.6023987933577, "timestamp": "2025-12-16T21:38:57.445401+00:00", "meta": {"OBJECT_NAME": "FENGYUN 1C DEB", "OBJECT_ID": "1999-025AN", "EPOCH": "2025-12-13T17:30:42.767424", "MEAN_MOTION": 11.90122935, "ECCENTRICITY": 0.08522809, "INCLINATION": 99.7945, "RA_OF_ASC_NODE": 278.3912, "ARG_OF_PERICENTER": 8.906, "MEAN_ANOMALY": 352.6084, "EPHEMERIS_TYPE": 0, "CLASSIFICATION_TYPE": "U", "NORAD_CAT_ID": 29748, "ELEMENT_SET_NO": 999, "REV_AT_EPOCH": 78745, "BSTAR": 0.15573559, "MEAN_MOTION_DOT": 0.00030993, "MEAN_MOTION_DDOT": 0}, "tle": {"line1": "1 29748U 99025AN  25347.72966166  .00030993  00000+0  15574+0 0  9993", "line2": "2 29748  99.7945 278.3912 0852280   8.9060 352.6084 11.90122935787457"}}, "geometry": {"type": "Point", "coordinates": [59.41682247123132, -75.34383388057972]}}]}